[{"OBJECT_NAME":"STARLINK-6140","OBJECT_ID":"2023-090L","EPOCH":"2026-03-09T22:54:44.119584","MEAN_MOTION":15.02533618,"ECCENTRICITY":0.00012835,"INCLINATION":43.0036,"RA_OF_ASC_NODE":273.1778,"ARG_OF_PERICENTER":261.6443,"MEAN_ANOMALY":98.4254,"EPHEMERIS_TYPE":0,"CLASSIFICATION_TYPE":"U","NORAD_CAT_ID":57111,"ELEMENT_SET_NO":999,"REV_AT_EPOCH":15045,"BSTAR":4.2759088e-5,"MEAN_MOTION_DOT":3.74e-6,"MEAN_MOTION_DDOT":0},{"OBJECT_NAME":"DIAMANT R\/B","OBJECT_ID":"1965-096B","EPOCH":"2026-03-09T06:37:58.450944","MEAN_MOTION":13.87748546,"ECCENTRICITY":0.05835308,"INCLINATION":34.2444,"RA_OF_ASC_NODE":152.0838,"ARG_OF_PERICENTER":53.3256,"MEAN_ANOMALY":311.9607,"EPHEMERIS_TYPE":0,"CLASSIFICATION_TYPE":"U","NORAD_CAT_ID":1805,"ELEMENT_SET_NO":999,"REV_AT_EPOCH":99082,"BSTAR":0.00024432239,"MEAN_MOTION_DOT":1.159e-5,"MEAN_MOTION_DDOT":0}]
